CCSDS_OMM_VERS = 2.0
CREATION_DATE  = 
ORIGINATOR     = 

OBJECT_NAME    = SL-16 R/B
OBJECT_ID      = 1993-016B
CENTER_NAME    = EARTH
REF_FRAME      = TEME
TIME_SYSTEM    = UTC
MEAN_ELEMENT_THEORY = SGP/SGP4

EPOCH          = 2026-03-04T11:29:58.527168
MEAN_MOTION    = 14.15305908
ECCENTRICITY   = .0011423
INCLINATION    = 71.0060
RA_OF_ASC_NODE = 226.1247
ARG_OF_PERICENTER = 321.4318
MEAN_ANOMALY   = 38.5988

EPHEMERIS_TYPE = 0
CLASSIFICATION_TYPE = U
NORAD_CAT_ID   = 22566
ELEMENT_SET_NO = 999
REV_AT_EPOCH   = 70143
BSTAR          = .18542E-3
MEAN_MOTION_DOT = .314E-5
MEAN_MOTION_DDOT = 0

CCSDS_OMM_VERS = 2.0
CREATION_DATE  = 
ORIGINATOR     = 

OBJECT_NAME    = COSMOS 2242
OBJECT_ID      = 1993-024A
CENTER_NAME    = EARTH
REF_FRAME      = TEME
TIME_SYSTEM    = UTC
MEAN_ELEMENT_THEORY = SGP/SGP4

EPOCH          = 2026-03-04T02:04:17.638464
MEAN_MOTION    = 14.96522155
ECCENTRICITY   = .0015557
INCLINATION    = 82.5154
RA_OF_ASC_NODE = 272.0778
ARG_OF_PERICENTER = 328.9179
MEAN_ANOMALY   = 31.1121

EPHEMERIS_TYPE = 0
CLASSIFICATION_TYPE = U
NORAD_CAT_ID   = 22626
ELEMENT_SET_NO = 999
REV_AT_EPOCH   = 77955
BSTAR          = .20393E-3
MEAN_MOTION_DOT = .2348E-4
MEAN_MOTION_DDOT = 0

CCSDS_OMM_VERS = 2.0
CREATION_DATE  = 
ORIGINATOR     = 

OBJECT_NAME    = SL-16 R/B
OBJECT_ID      = 1993-059B
CENTER_NAME    = EARTH
REF_FRAME      = TEME
TIME_SYSTEM    = UTC
MEAN_ELEMENT_THEORY = SGP/SGP4

EPOCH          = 2026-03-04T07:47:14.594208
MEAN_MOTION    = 14.17232330
ECCENTRICITY   = .0018779
INCLINATION    = 70.9921
RA_OF_ASC_NODE = 22.4393
ARG_OF_PERICENTER = 224.1741
MEAN_ANOMALY   = 135.7884

EPHEMERIS_TYPE = 0
CLASSIFICATION_TYPE = U
NORAD_CAT_ID   = 22803
ELEMENT_SET_NO = 999
REV_AT_EPOCH   = 67877
BSTAR          = .24136E-4
MEAN_MOTION_DOT = .1E-7
MEAN_MOTION_DDOT = 0

CCSDS_OMM_VERS = 2.0
CREATION_DATE  = 
ORIGINATOR     = 

OBJECT_NAME    = ARIANE 40 R/B
OBJECT_ID      = 1993-061H
CENTER_NAME    = EARTH
REF_FRAME      = TEME
TIME_SYSTEM    = UTC
MEAN_ELEMENT_THEORY = SGP/SGP4

EPOCH          = 2026-03-04T04:22:01.309440
MEAN_MOTION    = 14.32857837
ECCENTRICITY   = .0009656
INCLINATION    = 98.4928
RA_OF_ASC_NODE = 132.1781
ARG_OF_PERICENTER = 303.2942
MEAN_ANOMALY   = 56.7316

EPHEMERIS_TYPE = 0
CLASSIFICATION_TYPE = U
NORAD_CAT_ID   = 22830
ELEMENT_SET_NO = 999
REV_AT_EPOCH   = 69331
BSTAR          = .13004E-3
MEAN_MOTION_DOT = .312E-5
MEAN_MOTION_DDOT = 0

CCSDS_OMM_VERS = 2.0
CREATION_DATE  = 
ORIGINATOR     = 

OBJECT_NAME    = COSMOS 2278
OBJECT_ID      = 1994-023A
CENTER_NAME    = EARTH
REF_FRAME      = TEME
TIME_SYSTEM    = UTC
MEAN_ELEMENT_THEORY = SGP/SGP4

EPOCH          = 2026-03-04T12:08:04.736832
MEAN_MOTION    = 14.14376329
ECCENTRICITY   = .0007692
INCLINATION    = 71.0543
RA_OF_ASC_NODE = 185.9417
ARG_OF_PERICENTER = 23.7678
MEAN_ANOMALY   = 336.3799

EPHEMERIS_TYPE = 0
CLASSIFICATION_TYPE = U
NORAD_CAT_ID   = 23087
ELEMENT_SET_NO = 999
REV_AT_EPOCH   = 64407
BSTAR          = .18561E-3
MEAN_MOTION_DOT = .308E-5
MEAN_MOTION_DDOT = 0

CCSDS_OMM_VERS = 2.0
CREATION_DATE  = 
ORIGINATOR     = 

OBJECT_NAME    = SL-16 R/B
OBJECT_ID      = 1994-023B
CENTER_NAME    = EARTH
REF_FRAME      = TEME
TIME_SYSTEM    = UTC
MEAN_ELEMENT_THEORY = SGP/SGP4

EPOCH          = 2026-03-04T11:36:32.734944
MEAN_MOTION    = 14.15013380
ECCENTRICITY   = .0005642
INCLINATION    = 70.9987
RA_OF_ASC_NODE = 81.8212
ARG_OF_PERICENTER = 290.7503
MEAN_ANOMALY   = 69.3015

EPHEMERIS_TYPE = 0
CLASSIFICATION_TYPE = U
NORAD_CAT_ID   = 23088
ELEMENT_SET_NO = 999
REV_AT_EPOCH   = 64535
BSTAR          = -.35787E-4
MEAN_MOTION_DOT = -.117E-5
MEAN_MOTION_DDOT = 0

CCSDS_OMM_VERS = 2.0
CREATION_DATE  = 
ORIGINATOR     = 

OBJECT_NAME    = SL-16 R/B
OBJECT_ID      = 1994-074B
CENTER_NAME    = EARTH
REF_FRAME      = TEME
TIME_SYSTEM    = UTC
MEAN_ELEMENT_THEORY = SGP/SGP4

EPOCH          = 2026-03-04T02:42:58.536000
MEAN_MOTION    = 14.79400789
ECCENTRICITY   = .0005417
INCLINATION    = 97.7116
RA_OF_ASC_NODE = 94.1567
ARG_OF_PERICENTER = 232.0282
MEAN_ANOMALY   = 195.5039

EPHEMERIS_TYPE = 0
CLASSIFICATION_TYPE = U
NORAD_CAT_ID   = 23343
ELEMENT_SET_NO = 999
REV_AT_EPOCH   = 68642
BSTAR          = .1021E-3
MEAN_MOTION_DOT = .712E-5
MEAN_MOTION_DDOT = 0

CCSDS_OMM_VERS = 2.0
CREATION_DATE  = 
ORIGINATOR     = 

OBJECT_NAME    = SL-16 R/B
OBJECT_ID      = 1994-077B
CENTER_NAME    = EARTH
REF_FRAME      = TEME
TIME_SYSTEM    = UTC
MEAN_ELEMENT_THEORY = SGP/SGP4

EPOCH          = 2026-03-04T06:07:43.482432
MEAN_MOTION    = 14.15562115
ECCENTRICITY   = .0003395
INCLINATION    = 70.9851
RA_OF_ASC_NODE = 3.9204
ARG_OF_PERICENTER = 219.9110
MEAN_ANOMALY   = 140.1763

EPHEMERIS_TYPE = 0
CLASSIFICATION_TYPE = U
NORAD_CAT_ID   = 23405
ELEMENT_SET_NO = 999
REV_AT_EPOCH   = 61546
BSTAR          = -.93246E-4
MEAN_MOTION_DOT = -.23E-5
MEAN_MOTION_DDOT = 0

CCSDS_OMM_VERS = 2.0
CREATION_DATE  = 
ORIGINATOR     = 

OBJECT_NAME    = ARIANE 40+ R/B
OBJECT_ID      = 1995-021B
CENTER_NAME    = EARTH
REF_FRAME      = TEME
TIME_SYSTEM    = UTC
MEAN_ELEMENT_THEORY = SGP/SGP4

EPOCH          = 2026-03-04T04:20:20.177376
MEAN_MOTION    = 14.39768032
ECCENTRICITY   = .0007402
INCLINATION    = 98.4508
RA_OF_ASC_NODE = 134.7378
ARG_OF_PERICENTER = 151.3190
MEAN_ANOMALY   = 234.2081

EPHEMERIS_TYPE = 0
CLASSIFICATION_TYPE = U
NORAD_CAT_ID   = 23561
ELEMENT_SET_NO = 999
REV_AT_EPOCH   = 61845
BSTAR          = .15201E-3
MEAN_MOTION_DOT = .433E-5
MEAN_MOTION_DDOT = 0

CCSDS_OMM_VERS = 2.0
CREATION_DATE  = 
ORIGINATOR     = 

OBJECT_NAME    = SL-16 R/B
OBJECT_ID      = 1995-058B
CENTER_NAME    = EARTH
REF_FRAME      = TEME
TIME_SYSTEM    = UTC
MEAN_ELEMENT_THEORY = SGP/SGP4

EPOCH          = 2026-03-04T11:22:42.209760
MEAN_MOTION    = 14.15492887
ECCENTRICITY   = .0010999
INCLINATION    = 71.0211
RA_OF_ASC_NODE = 191.2039
ARG_OF_PERICENTER = 135.0151
MEAN_ANOMALY   = 225.1865

EPHEMERIS_TYPE = 0
CLASSIFICATION_TYPE = U
NORAD_CAT_ID   = 23705
ELEMENT_SET_NO = 999
REV_AT_EPOCH   = 56711
BSTAR          = .44263E-4
MEAN_MOTION_DOT = .39E-6
MEAN_MOTION_DDOT = 0

CCSDS_OMM_VERS = 2.0
CREATION_DATE  = 
ORIGINATOR     = 

OBJECT_NAME    = SL-16 R/B
OBJECT_ID      = 1996-051B
CENTER_NAME    = EARTH
REF_FRAME      = TEME
TIME_SYSTEM    = UTC
MEAN_ELEMENT_THEORY = SGP/SGP4

EPOCH          = 2026-03-04T12:00:25.932096
MEAN_MOTION    = 14.12414119
ECCENTRICITY   = .0015547
INCLINATION    = 70.7597
RA_OF_ASC_NODE = 186.2217
ARG_OF_PERICENTER = 155.7703
MEAN_ANOMALY   = 204.4151

EPHEMERIS_TYPE = 0
CLASSIFICATION_TYPE = U
NORAD_CAT_ID   = 24298
ELEMENT_SET_NO = 999
REV_AT_EPOCH   = 52091
BSTAR          = .83516E-4
MEAN_MOTION_DOT = .105E-5
MEAN_MOTION_DDOT = 0

CCSDS_OMM_VERS = 2.0
CREATION_DATE  = 
ORIGINATOR     = 

OBJECT_NAME    = ORBVIEW 2 (SEASTAR)
OBJECT_ID      = 1997-037A
CENTER_NAME    = EARTH
REF_FRAME      = TEME
TIME_SYSTEM    = UTC
MEAN_ELEMENT_THEORY = SGP/SGP4

EPOCH          = 2026-03-04T09:35:02.594112
MEAN_MOTION    = 14.35490740
ECCENTRICITY   = .0003172
INCLINATION    = 98.8556
RA_OF_ASC_NODE = 227.5711
ARG_OF_PERICENTER = 82.5160
MEAN_ANOMALY   = 277.6384

EPHEMERIS_TYPE = 0
CLASSIFICATION_TYPE = U
NORAD_CAT_ID   = 24883
ELEMENT_SET_NO = 999
REV_AT_EPOCH   = 50771
BSTAR          = .19297E-3
MEAN_MOTION_DOT = .508E-5
MEAN_MOTION_DDOT = 0

